STARLINK-2557           
1 48299U 21036Z   26068.43995508  .00003602  00000+0  13372-3 0  9998
2 48299  53.1592  76.5327 0001383  91.7171 268.3988 15.30191386268377
FLOCK 4G-13             
1 62621U 25009N   26068.70638971  .00053076  00000+0  16695-2 0  9995
2 62621  97.4019 151.0918 0003801 292.7207  67.3633 15.32770015 63700
